[{"OBJECT_NAME":"LEMUR-2-ANDIS","OBJECT_ID":"2017-042P","EPOCH":"2026-03-09T13:25:33.116448","MEAN_MOTION":15.30557934,"ECCENTRICITY":0.0009101,"INCLINATION":97.3659,"RA_OF_ASC_NODE":249.795,"ARG_OF_PERICENTER":4.3248,"MEAN_ANOMALY":355.807,"EPHEMERIS_TYPE":0,"CLASSIFICATION_TYPE":"U","NORAD_CAT_ID":42838,"ELEMENT_SET_NO":999,"REV_AT_EPOCH":47319,"BSTAR":0.00079875,"MEAN_MOTION_DOT":0.00023598,"MEAN_MOTION_DDOT":0},{"OBJECT_NAME":"STARLINK-1012","OBJECT_ID":"2019-074F","EPOCH":"2026-03-09T14:55:02.288064","MEAN_MOTION":15.30183402,"ECCENTRICITY":0.000234,"INCLINATION":53.1621,"RA_OF_ASC_NODE":179.1275,"ARG_OF_PERICENTER":35.486,"MEAN_ANOMALY":324.6296,"EPHEMERIS_TYPE":0,"CLASSIFICATION_TYPE":"U","NORAD_CAT_ID":44718,"ELEMENT_SET_NO":999,"REV_AT_EPOCH":34885,"BSTAR":-5.5774e-5,"MEAN_MOTION_DOT":-2.011e-5,"MEAN_MOTION_DDOT":0}]
